#dP2022  5  6  0  0  0.00000000      96 __u+U ITR14 FIT  IAC
## 2208 432000.00000000   900.00000000 59705 0.0000000000000
+  126   C01C02C03C04C05C06C07C08C09C10C11C12C13C14C16C19C20
+        C21C22C23C24C25C26C27C28C29C30C32C33C34C35C36C37C38
+        C39C40C41C42C43C44C45C46C60E02E03E04E05E07E08E09E10
+        E11E12E13E14E15E18E19E21E24E25E26E27E30E31E33E34E36
+        G01G02G03G04G05G06G07G08G09G10G11G12G13G14G15G16G17
+        G18G19G20G21G22G23G24G25G26G27G28G29G30G31G32J02J03
+        J07R01R02R03R04R05R06R07R08R09R10R11R12R13R14R15R17
+        R18R19R20R21R22R23R24  0  0  0  0  0  0  0  0  0  0
++         0 15 15 15 15  9  9  9  9  9  9  9  9  9  9  7  7
++         7  7  7  7  7  7  7  7  7  7  7  7  7  7  8  7  8
++         8  8  7  7  7  7  8  8 15  4  5  4  5  5  5  4  4
++         4  4  4  4  4  5  4  4  5  5  4  4  5  4  4  5  4
++         4  4  4  4  3  4  4  4  4  4  4  4  4  4  4  4  4
++         4  4  4  4  4  4  4  4  4  4  5  3  3  4  4  8  8
++        15  7  6  6  6  6 14  6  6  6 13  6  6  7  6  6  6
++         6  7  7  6  8 13  6  0  0  0  0  0  0  0  0  0  0
%c M  cc GPS ccc cccc cccc cccc cccc ccccc ccccc ccccc ccccc
%c cc cc ccc ccc cccc cccc cccc cccc ccccc ccccc ccccc ccccc
%f  0.0000000  0.000000000  0.00000000000  0.000000000000000
%f  0.0000000  0.000000000  0.00000000000  0.000000000000000
%i    0    0    0    0      0      0      0      0         0
%i    0    0    0    0      0      0      0      0         0
/* INFORMATION & ANALYSIS CENTER (IAC)            RAPID DATA
/* S/V CLOCKS ARE ALIGNED TO GNSS TIME                      
/* G:C1WC2W R:C1PC2P E:C1XC5X C:C2IC6I J:C1CC2S             
/* PCV:IGS14_2196 OL/AL:FES2004  NONE     YN ORB:CoN CLK:CoN
*  2022 05 06  6 15  0.00000000
PC01      0.000000      0.000000      0.000000 999999.999999
PC02   4301.738069  41883.560755   -923.239759     55.455570
PC03 -14712.016048  39474.876728    -15.446476   -557.164324
PC04 -39601.783762  14461.087083    551.838316     41.133042
PC05  21916.484393  35942.456575   -815.818212    231.501787
PC06  -2398.694089  27525.292564 -31778.266655    -70.790778
PC07 -17812.786275  30644.398341  22721.884221   -130.213286
PC08  -9079.375014  40612.891228   7232.120238    297.984896
PC09   6306.113836  31229.264285 -26991.941638   -761.414663
PC10  -8921.876106  30624.731566  27610.354885    133.566823
PC11  21889.129018  17314.856571    848.326682    335.011971
PC12   8939.741731  20419.030174  16824.985904   -620.208609
PC13  -3657.280252  42137.526036   -642.456447    -40.848509
PC14  17598.652702   7390.568305 -20352.368769    469.013339
PC16  -4910.381654  25499.508405 -32991.194093    128.215257
PC19 -23871.122788     33.693721  14465.108322    872.400722
PC20 -10053.517475 -12613.951611  22788.539763   -903.823801
PC21 -10725.270944  18466.154557 -17927.105993   -239.665367
PC22 -24444.889136  13163.736831  -2627.487832   -972.630360
PC23  14965.832781 -14272.714179  18740.624239   -930.251130
PC24   6336.219890  24309.904379  12163.963023   -960.835848
PC25  15637.666617   5758.958047  22379.114491   -740.757082
PC26  -4632.736979  27308.209203  -3555.950221    741.834579
PC27    283.898373 -18077.684936 -21284.940798    718.826295
PC28  17170.570201  -5637.777855 -21264.902684     63.489865
PC29 -24764.256968  -9701.023866   8446.811457    550.864685
PC30 -17210.499482 -19762.367356  -9637.768316    498.065921
PC32  10630.564402 -18587.768012  17924.805698   -962.735948
PC33  23873.029546   -151.083847 -14457.486838   -965.826298
PC34  17896.242028  19541.912276   8695.909964   -409.839798
PC35 -17763.712611   5447.269582  20820.049287    261.125320
PC36 -15373.154882  -6695.462209 -22283.080103   -963.883022
PC37   6001.064719 -26842.919549   4665.841608   -914.911771
PC38 -13079.829607  37615.477470  14086.114932    230.151992
PC39 -10304.684804  22032.323287 -34402.594656     34.974421
PC40 -25000.785400  25150.378327  22655.471264    266.723496
PC41  24566.922945 -13061.195545   2247.549392   -965.788719
PC42   9081.367141  13166.155332 -22820.127715   -963.465064
PC43  24741.892939  10242.154895  -7820.534881   -925.773168
PC44     46.339329  18060.283228  21249.388552    650.543452
PC45 -14776.065419  14592.302788 -18648.229624    749.704947
PC46  -7232.142097 -23345.101704 -13436.796834   -309.535381
PC60   7334.082243  41494.259038   1154.332722     -0.769264
PE02 -17257.243419  24057.770296   -295.857921    297.357399
PE03 -15565.482342  13639.262595 -21152.834764   -555.349638
PE04  -6366.244622 -17089.917400  23326.580428  -1021.829142
PE05 -28801.076427   2090.402689  -6487.898917   -184.261674
PE07  25092.136370  10478.146210 -11697.168443   -665.681111
PE08   6790.668345  16895.878282 -23331.384870   -524.296071
PE09 -25188.018103 -10270.968726  11662.373584   -508.558019
PE10 -14388.420283 -25699.261545   2958.564582   -511.191763
PE11 -18330.622805 -19446.566568  12739.430898   3754.232849
PE12  -8229.549125 -27644.938889  -6711.746776   4627.795381
PE13  18174.649132  19926.185708 -12184.473488    428.493251
PE14   7604.100192 -18889.034388 -24378.013015  -1838.975414
PE15   8206.518980  27590.882188   6873.668039    747.382726
PE18   6592.114161  16904.300988  17333.006405  -1481.971059
PE19  17946.859251 -12418.503709  20008.662405  -4193.987084
PE21  21723.745289 -11070.754039  16778.580847   -732.550349
PE24 -13195.206891 -10257.632275 -24445.679072   -599.526964
PE25 -21706.207264  10819.658868 -16970.124860   -572.928789
PE26  17208.672245   -459.923157 -24078.476815  -1111.953664
PE27  13981.094830   9046.266194  24471.204025   -292.319123
PE30  -2856.516506  24077.878492  16975.853365   -487.664411
PE31   1915.249556 -23650.155890 -17691.125214   -496.180765
PE33   6539.381075 -18960.289404 -21774.234246   -456.921376
PE34  -6365.683777  19121.075364  21671.059096   -515.636845
PE36 -17401.891372   -640.169769  23937.567972   -369.656710
PG01 -15011.334366   -151.267947  21655.022233    369.182244
PG02  14721.304871  20013.211849  -8523.601161   -653.279089
PG03 -20726.381650   9433.735728  13464.007954   -233.942094
PG04 -25170.097314     11.097485  -8603.449686   -169.838899
PG05  15111.549156   5187.926475 -21403.762488    -80.830403
PG06   5104.305390  25628.994420   4564.132709    292.697215
PG07  -8319.147965  16720.231548 -18290.032978    321.737246
PG08 -26167.636796  -5519.534617   -870.928969    -66.845492
PG09 -18698.019830   8625.556369 -16855.526157   -338.836579
PG10   8771.737506 -22001.573969  11862.511551   -404.032612
PG11  12829.910767  21010.186314  -9991.487276    -28.739102
PG12  20463.892805  -4597.791226  15953.597459   -211.138675
PG13  21664.888265  13451.215126  -7887.734989    306.565305
PG14 -10577.265188  21851.834188  10665.766130   -106.882043
PG15  26601.965415   2628.729137   -702.366819    -63.457038
PG16 -11040.243817 -10416.067256 -22077.848588   -498.362505
PG17  -1880.062650  15008.113337  22260.786634    609.189548
PG18   8586.101559 -16363.656737 -19042.178563    177.539586
PG19   6580.823799  16173.600897  19815.575817    153.631704
PG20   8018.384593  14972.739918 -20466.049236    515.498288
PG21 -17816.361637 -10408.074326  17733.233257    160.935619
PG22  -9370.238538 -16613.227932  18972.490235    254.587086
PG23  16396.148484 -20784.463076   1305.517869    -19.987090
PG24  17306.724318   3891.387273  19584.242837    245.913879
PG25  19587.647468 -16932.571933   4939.495439    321.107600
PG26  -2291.940264 -18872.471355 -18511.999749    203.672070
PG27 -20287.499027 -12690.539419 -12152.577891    197.938468
PG28  -3320.685530  19884.347662  17922.417487    362.531313
PG29  19653.566441  -6083.648551 -16887.487849   -510.674298
PG30  -2042.427982  23412.000313 -12048.980929   -526.779817
PG31  -6460.723884 -25437.172013   1660.668807   -176.434245
PG32  -1509.631080 -15736.937407  21508.772513   -120.760698
PJ02 -25976.052749  32848.858328   -907.099540     -3.276200
PJ03 -25920.510145  22536.402085  29549.517856     -1.967910
PJ07 -25405.977306  33640.560781    -39.137943      0.015741
PR01 -23330.418644   8923.852666  -5121.306093      8.449840
PR02  -8931.731382  12111.787092 -20565.125904    517.544438
PR03  10010.102681   8231.414004 -21910.428021     56.162065
PR04  22970.920389   -266.651810 -11046.760290    140.151640
PR05  23313.826566  -8461.412652   5933.888032     92.385751
PR06   7328.297534 -12493.743523  20988.289549    -46.907678
PR07 -10815.284543  -7955.551579  21742.099015     34.723841
PR08 -23039.367348    296.251684  11030.887585    -64.980747
PR09   6130.694125 -24786.297619   -880.774734     53.549374
PR10  -2437.724268 -19876.465670 -15764.141620    -82.115671
PR11 -10433.517463  -3175.727984 -23049.603805     39.669845
PR12 -12269.304587  15890.897633 -15722.871067     18.300454
PR13  -6826.373676  24574.723251   -405.894580    -21.900259
PR14   3170.717899  18943.007281  16786.412693     77.291012
PR15  10780.453493   2404.729413  23010.190193     96.342556
PR17  15314.249608  19671.621580   5485.900289    523.600774
PR18  18941.992603  12808.048337 -11237.273635    115.906248
PR19  13398.449121    574.379765 -21702.686240   -187.985455
PR20  -1826.907255 -15526.575378 -20168.950324    -70.019362
PR21 -15924.015991 -19506.619101  -4012.814342   -298.979320
PR22 -18824.271145 -12455.264149  11963.961407   -181.379745
PR23  -9669.068595   4740.644140  23110.972316    -39.689137
PR24   2448.814864  16107.347318  19641.379894     92.400512
EOF
